ONEWEB-0578             
1 56067U 23043X   24245.61648634  .00000141  00000+0  31018-3 0  9992
2 56067  87.9342  14.0936 0001947  94.9615 265.1741 13.21825140 71895
ONEWEB-0579             
1 56068U 23043Y   24245.60702181  .00000128  00000+0  27872-3 0  9998
2 56068  87.9338  14.0907 0001484 107.2377 252.8920 13.21827075 71901
ONEWEB-0581             
1 56069U 23043Z   24245.80438799 -.00000330  00000+0 -89738-3 0  9998
2 56069  87.9168 358.9028 0001545  88.8283 271.3025 13.16594006 73896
ONEWEB-0609             
1 56070U 23043AA  24245.39495999  .00000214  00000+0  53463-3 0  9994
2 56070  87.9068  29.3135 0001783 100.2557 259.8775 13.15550388 70470
ONEWEB-0613             
1 56071U 23043AB  24245.84657171  .00000111  00000+0  26179-3 0  9997
2 56071  87.9071  29.2228 0001551 105.6152 254.5149 13.15547965 71442
ONEWEB-0630             
1 56072U 23043AC  24245.46151931  .00000175  00000+0  43182-3 0  9992
2 56072  87.9068  29.2876 0001624 109.0653 251.0653 13.15549279 70477
ONEWEB-0632             
1 56073U 23043AD  24245.45675386  .00000146  00000+0  35378-3 0  9993
2 56073  87.9069  29.3075 0001425  88.5138 271.6156 13.15550676 70478
ONEWEB-0633             
1 56074U 23043AE  24245.45041662  .00000069  00000+0  14855-3 0  9999
2 56074  87.9061  29.2875 0001772 115.0353 245.0962 13.15549880 70451
